{
  "type": "FeatureCollection",
  "features": [
    {
      "type": "Feature",
      "properties": {
        "norad_id": 32099,
        "name": "FENGYUN 1C DEB",
        "group": "fengyun-1c-debris",
        "lat": -80.9158865109428,
        "lon": 65.43669370015434,
        "alt_km": 715.6888986881904,
        "timestamp": "2025-12-04T07:39:36.419974+00:00",
        "meta_object_name": "FENGYUN 1C DEB",
        "meta_object_id": "1999-025CQR",
        "meta_epoch": "2025-12-03T04:33:36.004320",
        "meta_mean_motion": 13.91678631,
        "meta_eccentricity": 0.03436256,
        "meta_inclination": 98.2796,
        "meta_ra_of_asc_node": 310.028,
        "meta_arg_of_pericenter": 301.742,
        "meta_mean_anomaly": 72.5014,
        "meta_ephemeris_type": 0,
        "meta_classification_type": "U",
        "meta_norad_cat_id": 32099,
        "meta_element_set_no": 999,
        "meta_rev_at_epoch": 64555,
        "meta_bstar": 0.0022629905,
        "meta_mean_motion_dot": 4.614e-05,
        "meta_mean_motion_ddot": 0,
        "tle_line1": "1 32099U 99025CQR 25337.19000005  .00004614  00000+0  22630-2 0  9992",
        "tle_line2": "2 32099  98.2796 310.0280 0343625 301.7420  72.5014 13.91678631645559"
      },
      "geometry": {
        "type": "Point",
        "coordinates": [
          65.43669370015434,
          -80.9158865109428
        ]
      }
    },
    {
      "type": "Feature",
      "properties": {
        "norad_id": 32101,
        "name": "FENGYUN 1C DEB",
        "group": "fengyun-1c-debris",
        "lat": 53.25244213599085,
        "lon": -134.83852586400283,
        "alt_km": 961.2294530836953,
        "timestamp": "2025-12-04T07:39:36.419982+00:00",
        "meta_object_name": "FENGYUN 1C DEB",
        "meta_object_id": "1999-025CQT",
        "meta_epoch": "2025-12-02T10:51:08.226720",
        "meta_mean_motion": 14.0154371,
        "meta_eccentricity": 0.01218021,
        "meta_inclination": 99.0307,
        "meta_ra_of_asc_node": 235.6114,
        "meta_arg_of_pericenter": 267.4856,
        "meta_mean_anomaly": 91.2361,
        "meta_ephemeris_type": 0,
        "meta_classification_type": "U",
        "meta_norad_cat_id": 32101,
        "meta_element_set_no": 999,
        "meta_rev_at_epoch": 93038,
        "meta_bstar": 0.0026974612,
        "meta_mean_motion_dot": 4.309e-05,
        "meta_mean_motion_ddot": 0,
        "tle_line1": "1 32101U 99025CQT 25336.45217855  .00004309  00000+0  26975-2 0  9994",
        "tle_line2": "2 32101  99.0307 235.6114 0121802 267.4856  91.2361 14.01543710930382"
      },
      "geometry": {
        "type": "Point",
        "coordinates": [
          -134.83852586400283,
          53.25244213599085
        ]
      }
    },
    {
      "type": "Feature",
      "properties": {
        "norad_id": 32105,
        "name": "FENGYUN 1C DEB",
        "group": "fengyun-1c-debris",
        "lat": 51.22733824640746,
        "lon": -50.30006101963218,
        "alt_km": 871.2769661577213,
        "timestamp": "2025-12-04T07:39:36.419991+00:00",
        "meta_object_name": "FENGYUN 1C DEB",
        "meta_object_id": "1999-025CQX",
        "meta_epoch": "2025-12-02T19:34:22.008000",
        "meta_mean_motion": 13.40202446,
        "meta_eccentricity": 0.03938261,
        "meta_inclination": 103.4621,
        "meta_ra_of_asc_node": 325.0549,
        "meta_arg_of_pericenter": 95.9408,
        "meta_mean_anomaly": 268.6726,
        "meta_ephemeris_type": 0,
        "meta_classification_type": "U",
        "meta_norad_cat_id": 32105,
        "meta_element_set_no": 999,
        "meta_rev_at_epoch": 59578,
        "meta_bstar": 0.0030920356,
        "meta_mean_motion_dot": 2.593e-05,
        "meta_mean_motion_ddot": 0,
        "tle_line1": "1 32105U 99025CQX 25336.81553250  .00002593  00000+0  30920-2 0  9998",
        "tle_line2": "2 32105 103.4621 325.0549 0393826  95.9408 268.6726 13.40202446595781"
      },
      "geometry": {
        "type": "Point",
        "coordinates": [
          -50.30006101963218,
          51.22733824640746
        ]
      }
    },
    {
      "type": "Feature",
      "properties": {
        "norad_id": 32106,
        "name": "FENGYUN 1C DEB",
        "group": "fengyun-1c-debris",
        "lat": -65.190392227345,
        "lon": 101.0924603178878,
        "alt_km": 888.3394357556426,
        "timestamp": "2025-12-04T07:39:36.420000+00:00",
        "meta_object_name": "FENGYUN 1C DEB",
        "meta_object_id": "1999-025CQY",
        "meta_epoch": "2025-12-01T04:26:59.805888",
        "meta_mean_motion": 14.26624695,
        "meta_eccentricity": 0.01094883,
        "meta_inclination": 101.4616,
        "meta_ra_of_asc_node": 303.0332,
        "meta_arg_of_pericenter": 72.2765,
        "meta_mean_anomaly": 289.032,
        "meta_ephemeris_type": 0,
        "meta_classification_type": "U",
        "meta_norad_cat_id": 32106,
        "meta_element_set_no": 999,
        "meta_rev_at_epoch": 69227,
        "meta_bstar": 0.0038557998,
        "meta_mean_motion_dot": 9.872e-05,
        "meta_mean_motion_ddot": 0,
        "tle_line1": "1 32106U 99025CQY 25335.18541442  .00009872  00000+0  38558-2 0  9990",
        "tle_line2": "2 32106 101.4616 303.0332 0109488  72.2765 289.0320 14.26624695692271"
      },
      "geometry": {
        "type": "Point",
        "coordinates": [
          101.0924603178878,
          -65.190392227345
        ]
      }
    },
    {
      "type": "Feature",
      "properties": {
        "norad_id": 32109,
        "name": "FENGYUN 1C DEB",
        "group": "fengyun-1c-debris",
        "lat": -7.315198599988585,
        "lon": 37.07307571701049,
        "alt_km": 910.2823828224182,
        "timestamp": "2025-12-04T07:39:36.420009+00:00",
        "meta_object_name": "FENGYUN 1C DEB",
        "meta_object_id": "1999-025CRB",
        "meta_epoch": "2025-11-27T22:22:45.612768",
        "meta_mean_motion": 14.3384742,
        "meta_eccentricity": 0.0206758,
        "meta_inclination": 98.3601,
        "meta_ra_of_asc_node": 211.977,
        "meta_arg_of_pericenter": 356.4894,
        "meta_mean_anomaly": 3.4829,
        "meta_ephemeris_type": 0,
        "meta_classification_type": "U",
        "meta_norad_cat_id": 32109,
        "meta_element_set_no": 999,
        "meta_rev_at_epoch": 64676,
        "meta_bstar": 0.00064211,
        "meta_mean_motion_dot": 2.222e-05,
        "meta_mean_motion_ddot": 0,
        "tle_line1": "1 32109U 99025CRB 25331.93247237  .00002222  00000+0  64211-3 0  9995",
        "tle_line2": "2 32109  98.3601 211.9770 0206758 356.4894   3.4829 14.33847420646769"
      },
      "geometry": {
        "type": "Point",
        "coordinates": [
          37.07307571701049,
          -7.315198599988585
        ]
      }
    },
    {
      "type": "Feature",
      "properties": {
        "norad_id": 32110,
        "name": "FENGYUN 1C DEB",
        "group": "fengyun-1c-debris",
        "lat": 3.2996730563765007,
        "lon": 146.17014686270267,
        "alt_km": 777.1912653385652,
        "timestamp": "2025-12-04T07:39:36.420018+00:00",
        "meta_object_name": "FENGYUN 1C DEB",
        "meta_object_id": "1999-025CRC",
        "meta_epoch": "2025-12-02T10:24:15.105024",
        "meta_mean_motion": 14.28773451,
        "meta_eccentricity": 0.00331718,
        "meta_inclination": 99.5432,
        "meta_ra_of_asc_node": 144.6648,
        "meta_arg_of_pericenter": 36.7876,
        "meta_mean_anomaly": 353.0914,
        "meta_ephemeris_type": 0,
        "meta_classification_type": "U",
        "meta_norad_cat_id": 32110,
        "meta_element_set_no": 999,
        "meta_rev_at_epoch": 64241,
        "meta_bstar": 0.0019198872,
        "meta_mean_motion_dot": 4.816e-05,
        "meta_mean_motion_ddot": 0,
        "tle_line1": "1 32110U 99025CRC 25336.43350816  .00004816  00000+0  19199-2 0  9990",
        "tle_line2": "2 32110  99.5432 144.6648 0033171  36.7876 353.0914 14.28773451642410"
      },
      "geometry": {
        "type": "Point",
        "coordinates": [
          146.17014686270267,
          3.2996730563765007
        ]
      }
    },
    {
      "type": "Feature",
      "properties": {
        "norad_id": 32111,
        "name": "FENGYUN 1C DEB",
        "group": "fengyun-1c-debris",
        "lat": -73.2617179786733,
        "lon": 7.877518788008033,
        "alt_km": 743.6459526308963,
        "timestamp": "2025-12-04T07:39:36.420027+00:00",
        "meta_object_name": "FENGYUN 1C DEB",
        "meta_object_id": "1999-025CRD",
        "meta_epoch": "2025-12-01T18:46:27.916320",
        "meta_mean_motion": 14.31523108,
        "meta_eccentricity": 0.01192533,
        "meta_inclination": 98.4435,
        "meta_ra_of_asc_node": 335.8125,
        "meta_arg_of_pericenter": 237.5229,
        "meta_mean_anomaly": 299.5029,
        "meta_ephemeris_type": 0,
        "meta_classification_type": "U",
        "meta_norad_cat_id": 32111,
        "meta_element_set_no": 999,
        "meta_rev_at_epoch": 95874,
        "meta_bstar": 0.00024661709,
        "meta_mean_motion_dot": 6.64e-06,
        "meta_mean_motion_ddot": 0,
        "tle_line1": "1 32111U 99025CRD 25335.78226755  .00000664  00000+0  24662-3 0  9991",
        "tle_line2": "2 32111  98.4435 335.8125 0119253 237.5229 299.5029 14.31523108958748"
      },
      "geometry": {
        "type": "Point",
        "coordinates": [
          7.877518788008033,
          -73.2617179786733
        ]
      }
    }
  ]
}